STARLINK-31729          
1 59610U 24080K   26061.32567461 -.00001577  00000+0 -47776-4 0  9990
2 59610  43.0005  76.2752 0001285 259.9447 100.1260 15.27589983103449
STARLINK-31448          
1 59611U 24080L   26061.31025818  .00000626  00000+0  32280-4 0  9991
2 59611  43.0028  76.1575 0001501 278.5766  81.4916 15.27574207103441
STARLINK-31748          
1 59612U 24080M   26061.09481869  .00001048  00000+0  47600-4 0  9990
2 59612  43.0037  77.1222 0000977 258.7220 101.3522 15.27579682104586
STARLINK-31746          
1 59613U 24080N   26061.34524467  .00001045  00000+0  47504-4 0  9991
2 59613  42.9997  83.3115 0001517 274.2090  85.8589 15.27584609103368
STARLINK-31762          
1 59614U 24080P   26061.44824910  .00002344  00000+0  94654-4 0  9990
2 59614  43.0025  78.9325 0001315 269.9554  90.1147 15.27583864103426
STARLINK-31761          
1 59615U 24080Q   26061.83335647  .00313355  00000+0  47446-2 0  9990
2 59615  42.9951  70.5105 0018302 116.4524 254.3779 15.52636254  5880
STARLINK-31768          
1 59616U 24080R   26061.31491200  .00003635  00000+0  14158-3 0  9994
2 59616  43.0047  79.6541 0001182 266.6736  93.3980 15.27571249103400
STARLINK-31769          
1 59617U 24080S   26061.33289926 -.00001310  00000+0 -38077-4 0  9994
2 59617  42.9982  79.7843 0000530 264.1717  95.9074 15.27593457103408
STARLINK-31784          
1 59618U 24080T   26061.39651713 -.00000824  00000+0 -20412-4 0  9991
2 59618  43.0010  82.8608 0001171 267.2129  92.8589 15.27587894103371
STARLINK-31777          
1 59619U 24080U   26061.33498536  .00000778  00000+0  37806-4 0  9999
2 59619  43.0002  83.2565 0001261 267.2135  92.8573 15.27576592103362
STARLINK-31758          
1 59621U 24080W   26061.08327584 -.00001557  00000+0 -47083-4 0  9994
2 59621  43.0011  77.0302 0000637 283.9360  76.1421 15.27565810103410
STARLINK-31774          
1 59622U 24080X   26061.31668181  .00000696  00000+0  34830-4 0  9999
2 59622  43.0010  76.2012 0001224 274.1161  85.9550 15.27576324103449
STARLINK-31763          
1 59623U 24080Y   26061.40213887  .00002526  00000+0  10130-3 0  9999
2 59623  43.0013  79.4465 0000850 260.0252 100.0504 15.27570084103411
STARLINK-31749          
1 59631U 24082A   26061.74449286 -.00002634  00000+0 -86281-4 0  9994
2 59631  43.0011 178.6966 0001181 279.5068  80.5650 15.27555146103959
STARLINK-31781          
1 59632U 24082B   26061.64256873  .00001893  00000+0  78298-4 0  9995
2 59632  42.9988 165.4929 0001031 258.4284 101.6451 15.27582404103933
STARLINK-31541          
1 59633U 24082C   26061.36341193  .00000374  00000+0  23101-4 0  9991
2 59633  43.0028 174.0689 0001081 263.3244  96.7485 15.27572699103965
