[{"OBJECT_NAME":"STARLINK-31729","OBJECT_ID":"2024-080K","EPOCH":"2026-03-02T07:48:58.286304","MEAN_MOTION":15.27589983,"ECCENTRICITY":0.0001285,"INCLINATION":43.0005,"RA_OF_ASC_NODE":76.2752,"ARG_OF_PERICENTER":259.9447,"MEAN_ANOMALY":100.126,"EPHEMERIS_TYPE":0,"CLASSIFICATION_TYPE":"U","NORAD_CAT_ID":59610,"ELEMENT_SET_NO":999,"REV_AT_EPOCH":10344,"BSTAR":-4.7776282e-5,"MEAN_MOTION_DOT":-1.577e-5,"MEAN_MOTION_DDOT":0},{"OBJECT_NAME":"STARLINK-31448","OBJECT_ID":"2024-080L","EPOCH":"2026-03-02T07:26:46.306752","MEAN_MOTION":15.27574207,"ECCENTRICITY":0.00015016,"INCLINATION":43.0028,"RA_OF_ASC_NODE":76.1575,"ARG_OF_PERICENTER":278.5766,"MEAN_ANOMALY":81.4916,"EPHEMERIS_TYPE":0,"CLASSIFICATION_TYPE":"U","NORAD_CAT_ID":59611,"ELEMENT_SET_NO":999,"REV_AT_EPOCH":10344,"BSTAR":3.22805e-5,"MEAN_MOTION_DOT":6.26e-6,"MEAN_MOTION_DDOT":0},{"OBJECT_NAME":"STARLINK-31748","OBJECT_ID":"2024-080M","EPOCH":"2026-03-02T02:16:32.334816","MEAN_MOTION":15.27579682,"ECCENTRICITY":9.774e-5,"INCLINATION":43.0037,"RA_OF_ASC_NODE":77.1222,"ARG_OF_PERICENTER":258.722,"MEAN_ANOMALY":101.3522,"EPHEMERIS_TYPE":0,"CLASSIFICATION_TYPE":"U","NORAD_CAT_ID":59612,"ELEMENT_SET_NO":999,"REV_AT_EPOCH":10458,"BSTAR":4.7600019e-5,"MEAN_MOTION_DOT":1.048e-5,"MEAN_MOTION_DDOT":0},{"OBJECT_NAME":"STARLINK-31746","OBJECT_ID":"2024-080N","EPOCH":"2026-03-02T08:17:09.139488","MEAN_MOTION":15.27584609,"ECCENTRICITY":0.00015173,"INCLINATION":42.9997,"RA_OF_ASC_NODE":83.3115,"ARG_OF_PERICENTER":274.209,"MEAN_ANOMALY":85.8589,"EPHEMERIS_TYPE":0,"CLASSIFICATION_TYPE":"U","NORAD_CAT_ID":59613,"ELEMENT_SET_NO":999,"REV_AT_EPOCH":10336,"BSTAR":4.7504485e-5,"MEAN_MOTION_DOT":1.045e-5,"MEAN_MOTION_DDOT":0},{"OBJECT_NAME":"STARLINK-31762","OBJECT_ID":"2024-080P","EPOCH":"2026-03-02T10:45:28.722240","MEAN_MOTION":15.27583864,"ECCENTRICITY":0.00013151,"INCLINATION":43.0025,"RA_OF_ASC_NODE":78.9325,"ARG_OF_PERICENTER":269.9554,"MEAN_ANOMALY":90.1147,"EPHEMERIS_TYPE":0,"CLASSIFICATION_TYPE":"U","NORAD_CAT_ID":59614,"ELEMENT_SET_NO":999,"REV_AT_EPOCH":10342,"BSTAR":9.4654277e-5,"MEAN_MOTION_DOT":2.344e-5,"MEAN_MOTION_DDOT":0},{"OBJECT_NAME":"STARLINK-31761","OBJECT_ID":"2024-080Q","EPOCH":"2026-03-02T20:00:01.999008","MEAN_MOTION":15.52636254,"ECCENTRICITY":0.0018302,"INCLINATION":42.9951,"RA_OF_ASC_NODE":70.5105,"ARG_OF_PERICENTER":116.4524,"MEAN_ANOMALY":254.3779,"EPHEMERIS_TYPE":0,"CLASSIFICATION_TYPE":"U","NORAD_CAT_ID":59615,"ELEMENT_SET_NO":999,"REV_AT_EPOCH":588,"BSTAR":0.0047446,"MEAN_MOTION_DOT":0.00313355,"MEAN_MOTION_DDOT":0},{"OBJECT_NAME":"STARLINK-31768","OBJECT_ID":"2024-080R","EPOCH":"2026-03-02T07:33:28.396800","MEAN_MOTION":15.27571249,"ECCENTRICITY":0.00011825,"INCLINATION":43.0047,"RA_OF_ASC_NODE":79.6541,"ARG_OF_PERICENTER":266.6736,"MEAN_ANOMALY":93.398,"EPHEMERIS_TYPE":0,"CLASSIFICATION_TYPE":"U","NORAD_CAT_ID":59616,"ELEMENT_SET_NO":999,"REV_AT_EPOCH":10340,"BSTAR":0.00014157508,"MEAN_MOTION_DOT":3.635e-5,"MEAN_MOTION_DDOT":0},{"OBJECT_NAME":"STARLINK-31769","OBJECT_ID":"2024-080S","EPOCH":"2026-03-02T07:59:22.496064","MEAN_MOTION":15.27593457,"ECCENTRICITY":5.307e-5,"INCLINATION":42.9982,"RA_OF_ASC_NODE":79.7843,"ARG_OF_PERICENTER":264.1717,"MEAN_ANOMALY":95.9074,"EPHEMERIS_TYPE":0,"CLASSIFICATION_TYPE":"U","NORAD_CAT_ID":59617,"ELEMENT_SET_NO":999,"REV_AT_EPOCH":10340,"BSTAR":-3.8076892e-5,"MEAN_MOTION_DOT":-1.31e-5,"MEAN_MOTION_DDOT":0},{"OBJECT_NAME":"STARLINK-31784","OBJECT_ID":"2024-080T","EPOCH":"2026-03-02T09:30:59.080032","MEAN_MOTION":15.27587894,"ECCENTRICITY":0.00011717,"INCLINATION":43.001,"RA_OF_ASC_NODE":82.8608,"ARG_OF_PERICENTER":267.2129,"MEAN_ANOMALY":92.8589,"EPHEMERIS_TYPE":0,"CLASSIFICATION_TYPE":"U","NORAD_CAT_ID":59618,"ELEMENT_SET_NO":999,"REV_AT_EPOCH":10337,"BSTAR":-2.0411582e-5,"MEAN_MOTION_DOT":-8.24e-6,"MEAN_MOTION_DDOT":0},{"OBJECT_NAME":"STARLINK-31777","OBJECT_ID":"2024-080U","EPOCH":"2026-03-02T08:02:22.735104","MEAN_MOTION":15.27576592,"ECCENTRICITY":0.00012612,"INCLINATION":43.0002,"RA_OF_ASC_NODE":83.2565,"ARG_OF_PERICENTER":267.2135,"MEAN_ANOMALY":92.8573,"EPHEMERIS_TYPE":0,"CLASSIFICATION_TYPE":"U","NORAD_CAT_ID":59619,"ELEMENT_SET_NO":999,"REV_AT_EPOCH":10336,"BSTAR":3.7805905e-5,"MEAN_MOTION_DOT":7.78e-6,"MEAN_MOTION_DDOT":0},{"OBJECT_NAME":"STARLINK-31758","OBJECT_ID":"2024-080W","EPOCH":"2026-03-02T01:59:55.032576","MEAN_MOTION":15.2756581,"ECCENTRICITY":6.37e-5,"INCLINATION":43.0011,"RA_OF_ASC_NODE":77.0302,"ARG_OF_PERICENTER":283.936,"MEAN_ANOMALY":76.1421,"EPHEMERIS_TYPE":0,"CLASSIFICATION_TYPE":"U","NORAD_CAT_ID":59621,"ELEMENT_SET_NO":999,"REV_AT_EPOCH":10341,"BSTAR":-4.7083053e-5,"MEAN_MOTION_DOT":-1.557e-5,"MEAN_MOTION_DDOT":0},{"OBJECT_NAME":"STARLINK-31774","OBJECT_ID":"2024-080X","EPOCH":"2026-03-02T07:36:01.308384","MEAN_MOTION":15.27576324,"ECCENTRICITY":0.00012249,"INCLINATION":43.001,"RA_OF_ASC_NODE":76.2012,"ARG_OF_PERICENTER":274.1161,"MEAN_ANOMALY":85.955,"EPHEMERIS_TYPE":0,"CLASSIFICATION_TYPE":"U","NORAD_CAT_ID":59622,"ELEMENT_SET_NO":999,"REV_AT_EPOCH":10344,"BSTAR":3.4830364e-5,"MEAN_MOTION_DOT":6.96e-6,"MEAN_MOTION_DDOT":0},{"OBJECT_NAME":"STARLINK-31763","OBJECT_ID":"2024-080Y","EPOCH":"2026-03-02T09:39:04.798368","MEAN_MOTION":15.27570084,"ECCENTRICITY":8.501e-5,"INCLINATION":43.0013,"RA_OF_ASC_NODE":79.4465,"ARG_OF_PERICENTER":260.0252,"MEAN_ANOMALY":100.0504,"EPHEMERIS_TYPE":0,"CLASSIFICATION_TYPE":"U","NORAD_CAT_ID":59623,"ELEMENT_SET_NO":999,"REV_AT_EPOCH":10341,"BSTAR":0.00010129994,"MEAN_MOTION_DOT":2.526e-5,"MEAN_MOTION_DDOT":0},{"OBJECT_NAME":"STARLINK-31749","OBJECT_ID":"2024-082A","EPOCH":"2026-03-02T17:52:04.183104","MEAN_MOTION":15.27555146,"ECCENTRICITY":0.0001181,"INCLINATION":43.0011,"RA_OF_ASC_NODE":178.6966,"ARG_OF_PERICENTER":279.5068,"MEAN_ANOMALY":80.565,"EPHEMERIS_TYPE":0,"CLASSIFICATION_TYPE":"U","NORAD_CAT_ID":59631,"ELEMENT_SET_NO":999,"REV_AT_EPOCH":10395,"BSTAR":-8.6281e-5,"MEAN_MOTION_DOT":-2.634e-5,"MEAN_MOTION_DDOT":0},{"OBJECT_NAME":"STARLINK-31781","OBJECT_ID":"2024-082B","EPOCH":"2026-03-02T15:25:17.938272","MEAN_MOTION":15.27582404,"ECCENTRICITY":0.0001031,"INCLINATION":42.9988,"RA_OF_ASC_NODE":165.4929,"ARG_OF_PERICENTER":258.4284,"MEAN_ANOMALY":101.6451,"EPHEMERIS_TYPE":0,"CLASSIFICATION_TYPE":"U","NORAD_CAT_ID":59632,"ELEMENT_SET_NO":999,"REV_AT_EPOCH":10393,"BSTAR":7.8298e-5,"MEAN_MOTION_DOT":1.893e-5,"MEAN_MOTION_DDOT":0},{"OBJECT_NAME":"STARLINK-31541","OBJECT_ID":"2024-082C","EPOCH":"2026-03-02T08:43:18.790752","MEAN_MOTION":15.27572699,"ECCENTRICITY":0.00010811,"INCLINATION":43.0028,"RA_OF_ASC_NODE":174.0689,"ARG_OF_PERICENTER":263.3244,"MEAN_ANOMALY":96.7485,"EPHEMERIS_TYPE":0,"CLASSIFICATION_TYPE":"U","NORAD_CAT_ID":59633,"ELEMENT_SET_NO":999,"REV_AT_EPOCH":10396,"BSTAR":2.3101194e-5,"MEAN_MOTION_DOT":3.74e-6,"MEAN_MOTION_DDOT":0}]
